NORAD_CAT_ID,OBJECT_NAME,OBJECT_TYPE,EPOCH,MEAN_MOTION,ECCENTRICITY,INCLINATION,RA_OF_ASC_NODE,ARG_OF_PERICENTER,MEAN_ANOMALY,BSTAR,MEAN_MOTION_DOT,MEAN_MOTION_DDOT,TLE_LINE0,TLE_LINE1,TLE_LINE2,SEMIMAJOR_AXIS,PERIOD,APOGEE,PERIGEE,DECAYED
53260.0,STARLINK-4136,PAYLOAD,2024-07-04 02:26:59,15.08845707,0.0001179,53.2175,68.62,82.2678,277.8448,7.3675e-05,8.85e-06,0.0,0 STARLINK-4136,1 53260U 22086U   24186.10207989  .00000885  00000-0  73675-4 0  9994,2 53260  53.2175  68.6200 0001179  82.2678 277.8448 15.08845707108255,6917.863,95.437,540.544,538.912,0.0
53260.0,STARLINK-4136,PAYLOAD,2024-07-04 08:48:32,15.08843383,0.0001228,53.2171,67.43,79.5842,280.5288,2.1969e-05,6.2e-07,0.0,0 STARLINK-4136,1 53260U 22086U   24186.36704213  .00000062  00000-0  21969-4 0  9990,2 53260  53.2171  67.4300 0001228  79.5842 280.5288 15.08843383108471,6917.87,95.437,540.585,538.886,0.0
53260.0,STARLINK-4136,PAYLOAD,2024-07-04 19:56:15,15.08822417,0.0001216,53.2177,65.3497,87.4111,272.7021,0.00011834,1.595e-05,0.0,0 STARLINK-4136,1 53260U 22086U   24186.83073370  .00001595  00000-0  11834-3 0  9996,2 53260  53.2177  65.3497 0001216  87.4111 272.7021 15.08822417108366,6917.934,95.439,540.64,538.958,0.0
53260.0,STARLINK-4136,PAYLOAD,2024-07-04 23:07:01,15.08836013,0.000118,53.2177,64.7586,78.9444,281.168,3.4687e-05,2.64e-06,0.0,0 STARLINK-4136,1 53260U 22086U   24186.96320924  .00000264  00000-0  34687-4 0  9994,2 53260  53.2177  64.7586 0001180  78.9444 281.1680 15.08836013108566,6917.893,95.438,540.574,538.941,0.0
53260.0,STARLINK-4136,PAYLOAD,2024-07-05 08:39:20,15.08834947,0.0001258,53.2174,62.9744,95.8311,264.2825,4.1254e-05,3.69e-06,0.0,0 STARLINK-4136,1 53260U 22086U   24187.36065025  .00000369  00000-0  41254-4 0  9991,2 53260  53.2174  62.9744 0001258  95.8311 264.2825 15.08834947108620,6917.896,95.438,540.631,538.891,0.0
53260.0,STARLINK-4136,PAYLOAD,2024-07-05 21:22:25,15.08837118,0.0001303,53.2177,60.5955,96.3208,263.7932,1.8875e-05,1.3e-07,0.0,0 STARLINK-4136,1 53260U 22086U   24187.89057155  .00000013  00000-0  18875-4 0  9993,2 53260  53.2177  60.5955 0001303  96.3208 263.7932 15.08837118108708,6917.889,95.438,540.656,538.853,0.0
53260.0,STARLINK-4136,PAYLOAD,2024-07-06 02:08:34,15.08844259,0.0001435,53.2187,59.7001,83.546,276.5695,6.6458e-05,7.7e-06,0.0,0 STARLINK-4136,1 53260U 22086U   24188.08928665  .00000770  00000-0  66458-4 0  9998,2 53260  53.2187  59.7001 0001435  83.5460 276.5695 15.08844259108550,6917.867,95.437,540.725,538.74,0.0
53260.0,STARLINK-4136,PAYLOAD,2024-07-06 14:51:40,15.08834178,0.0001551,53.219,57.3207,79.4842,280.6325,2.1919e-05,6.1e-07,0.0,0 STARLINK-4136,1 53260U 22086U   24188.61921442  .00000061  00000-0  21919-4 0  9999,2 53260  53.2190  57.3207 0001551  79.4842 280.6325 15.08834178108817,6917.898,95.438,540.836,538.69,0.0
53260.0,STARLINK-4136,PAYLOAD,2024-07-06 21:13:12,15.08842037,0.00013,53.2172,56.1319,81.6416,278.4724,4.2058e-05,3.82e-06,0.0,0 STARLINK-4136,1 53260U 22086U   24188.88416938  .00000382  00000-0  42058-4 0  9990,2 53260  53.2172  56.1319 0001300  81.6416 278.4724 15.08842037108677,6917.874,95.437,540.638,538.84,0.0
53260.0,STARLINK-4136,PAYLOAD,2024-07-07 08:20:54,15.08843121,0.0001296,53.2182,54.0493,76.9094,283.2043,-1.5688e-05,-5.38e-06,0.0,0 STARLINK-4136,1 53260U 22086U   24189.34784949 -.00000538  00000-0 -15688-4 0  9996,2 53260  53.2182  54.0493 0001296  76.9094 283.2043 15.08843121108922,6917.871,95.437,540.632,538.839,0.0
53260.0,STARLINK-4136,PAYLOAD,2024-07-08 08:11:41,15.08842827,0.0001503,53.2197,49.5899,83.6839,276.4324,5.7234e-05,6.23e-06,0.0,0 STARLINK-4136,1 53260U 22086U   24190.34144993  .00000623  00000-0  57234-4 0  9993,2 53260  53.2197  49.5899 0001503  83.6839 276.4324 15.08842827108894,6917.872,95.437,540.777,538.697,0.0
53260.0,STARLINK-4136,PAYLOAD,2024-07-08 20:54:46,15.08847947,0.0001217,53.218,47.2102,95.8633,264.2497,3.1949e-05,2.21e-06,0.0,0 STARLINK-4136,1 53260U 22086U   24190.87136626  .00000221  00000-0  31949-4 0  9994,2 53260  53.2180  47.2102 0001217  95.8633 264.2497 15.08847947109151,6917.856,95.437,540.563,538.879,0.0
53260.0,STARLINK-4136,PAYLOAD,2024-07-09 14:24:01,15.08835833,0.0001647,53.2213,43.9409,92.2887,267.8294,2.6373e-05,1.32e-06,0.0,0 STARLINK-4136,1 53260U 22086U   24191.60001572  .00000132  00000-0  26373-4 0  9993,2 53260  53.2213  43.9409 0001647  92.2887 267.8294 15.08835833109267,6917.893,95.438,540.898,538.619,0.0
53260.0,STARLINK-4136,PAYLOAD,2024-07-09 20:45:33,15.08839595,0.0001425,53.2185,42.7517,117.6863,242.4274,-4.324e-05,-9.76e-06,0.0,0 STARLINK-4136,1 53260U 22086U   24191.86497384 -.00000976  00000-0 -43240-4 0  9991,2 53260  53.2185  42.7517 0001425 117.6863 242.4274 15.08839595109123,6917.882,95.438,540.732,538.761,0.0
53260.0,STARLINK-4136,PAYLOAD,2024-07-09 23:56:19,15.08839248,0.0001368,53.2185,42.1554,108.609,251.5051,1.409e-05,-6.4e-07,0.0,0 STARLINK-4136,1 53260U 22086U   24191.99745271 -.00000064  00000-0  14090-4 0  9994,2 53260  53.2185  42.1554 0001368 108.6090 251.5051 15.08839248109327,6917.883,95.438,540.694,538.801,0.0
53260.0,STARLINK-4136,PAYLOAD,2024-07-10 23:47:06,15.08840921,0.0001462,53.2188,37.695,111.1605,248.9544,4.6008e-05,4.44e-06,0.0,0 STARLINK-4136,1 53260U 22086U   24192.99105098  .00000444  00000-0  46008-4 0  9997,2 53260  53.2188  37.6950 0001462 111.1605 248.9544 15.08840921109298,6917.878,95.437,540.754,538.731,0.0
53260.0,STARLINK-4136,PAYLOAD,2024-07-12 05:59:25,15.08848489,0.0001094,53.2165,32.0469,94.7931,265.3186,9.4682e-05,1.22e-05,0.0,0 STARLINK-4136,1 53260U 22086U   24194.24960458  .00001220  00000-0  94682-4 0  9990,2 53260  53.2165  32.0469 0001094  94.7931 265.3186 15.08848489109489,6917.854,95.437,540.476,538.963,0.0
53260.0,STARLINK-4136,PAYLOAD,2024-07-12 20:17:55,15.08834896,0.0001126,53.219,29.3723,96.341,263.771,3.1959e-05,2.21e-06,0.0,0 STARLINK-4136,1 53260U 22086U   24194.84577640  .00000221  00000-0  31959-4 0  9991,2 53260  53.2190  29.3723 0001126  96.3410 263.7710 15.08834896109577,6917.896,95.438,540.54,538.982,0.0
53260.0,STARLINK-4136,PAYLOAD,2024-07-12 21:53:18,15.08836958,0.0001171,53.2197,29.0737,91.3375,268.7752,5.7138e-05,6.22e-06,0.0,0 STARLINK-4136,1 53260U 22086U   24194.91201502  .00000622  00000-0  57138-4 0  9992,2 53260  53.2197  29.0737 0001171  91.3375 268.7752 15.08836958109764,6917.89,95.438,540.565,538.945,0.0
53260.0,STARLINK-4136,PAYLOAD,2024-07-13 05:50:14,15.08835283,0.0001287,53.2184,27.5852,91.4436,268.6703,5.3365e-06,-2.03e-06,0.0,0 STARLINK-4136,1 53260U 22086U   24195.24321908 -.00000203  00000-0  53365-5 0  9997,2 53260  53.2184  27.5852 0001287  91.4436 268.6703 15.08835283109819,6917.895,95.438,540.65,538.869,0.0
53260.0,STARLINK-4136,PAYLOAD,2024-07-13 20:08:41,15.08846924,0.0001265,53.2186,24.9091,75.333,284.7802,2.5326e-05,1.15e-06,0.0,0 STARLINK-4136,1 53260U 22086U   24195.83937354  .00000115  00000-0  25326-4 0  9996,2 53260  53.2186  24.9091 0001265  75.3330 284.7802 15.08846924109720,6917.859,95.437,540.599,538.849,0.0
53260.0,STARLINK-4136,PAYLOAD,2024-07-13 21:44:04,15.08852429,0.0001299,53.2191,24.6127,82.0609,278.053,3.2199e-05,2.25e-06,0.0,0 STARLINK-4136,1 53260U 22086U   24195.90560987  .00000225  00000-0  32199-4 0  9996,2 53260  53.2191  24.6127 0001299  82.0609 278.0530 15.08852429109916,6917.842,95.437,540.606,538.809,0.0
53260.0,STARLINK-4136,PAYLOAD,2024-07-14 05:41:00,15.08845384,0.0001375,53.2188,23.1271,85.5703,274.5446,3.2435e-05,2.28e-06,0.0,0 STARLINK-4136,1 53260U 22086U   24196.23681314  .00000228  00000-0  32435-4 0  9997,2 53260  53.2188  23.1271 0001375  85.5703 274.5446 15.08845384109968,6917.864,95.437,540.68,538.778,0.0
53260.0,STARLINK-4136,PAYLOAD,2024-07-14 19:59:28,15.0884419,0.0001552,53.2187,20.448,74.0701,286.0462,0.00010804,1.432e-05,0.0,0 STARLINK-4136,1 53260U 22086U   24196.83297354  .00001432  00000-0  10804-3 0  9993,2 53260  53.2187  20.4480 0001552  74.0701 286.0462 15.08844190110059,6917.868,95.437,540.806,538.659,0.0
53260.0,STARLINK-4136,PAYLOAD,2024-07-15 05:31:48,15.08823417,0.0001516,53.2181,18.6669,90.1537,269.9629,0.00038531,5.847e-05,0.0,0 STARLINK-4136,1 53260U 22086U   24197.23042232  .00005847  00000-0  38531-3 0  9992,2 53260  53.2181  18.6669 0001516  90.1537 269.9629 15.08823417109936,6917.931,95.439,540.845,538.747,0.0
53260.0,STARLINK-4136,PAYLOAD,2024-07-15 21:25:39,15.08846163,0.0001495,53.2193,15.685,96.2851,263.8312,3.901e-05,3.33e-06,0.0,0 STARLINK-4136,1 53260U 22086U   24197.89281302  .00000333  00000-0  39010-4 0  9996,2 53260  53.2193  15.6850 0001495  96.2851 263.8312 15.08846163110218,6917.862,95.437,540.761,538.692,0.0
53260.0,STARLINK-4136,PAYLOAD,2024-07-16 11:44:07,15.0883973,0.0001534,53.2199,13.011,97.1045,263.0122,4.0736e-05,3.6e-06,0.0,0 STARLINK-4136,1 53260U 22086U   24198.48897626  .00000360  00000-0  40736-4 0  9991,2 53260  53.2199  13.0110 0001534  97.1045 263.0122 15.08839730110127,6917.881,95.438,540.807,538.685,0.0
53260.0,STARLINK-4136,PAYLOAD,2024-07-16 14:54:53,15.08843055,0.0001358,53.218,12.4227,81.6808,278.4338,6.1609e-05,6.93e-06,0.0,0 STARLINK-4136,1 53260U 22086U   24198.62145372  .00000693  00000-0  61609-4 0  9992,2 53260  53.2180  12.4227 0001358  81.6808 278.4338 15.08843055110324,6917.871,95.437,540.675,538.797,0.0
53260.0,STARLINK-4136,PAYLOAD,2024-07-16 16:30:16,15.08846296,0.0001541,53.2184,12.1257,78.9842,281.1323,8.9367e-05,1.135e-05,0.0,0 STARLINK-4136,1 53260U 22086U   24198.68769129  .00001135  00000-0  89367-4 0  9993,2 53260  53.2184  12.1257 0001541  78.9842 281.1323 15.08846296110335,6917.861,95.437,540.792,538.66,0.0
53260.0,STARLINK-4136,PAYLOAD,2024-07-17 14:45:41,15.08835242,0.0001408,53.2187,7.9536,108.4663,251.6482,4.2921e-05,3.95e-06,0.0,0 STARLINK-4136,1 53260U 22086U   24199.61506115  .00000395  00000-0  42921-4 0  9993,2 53260  53.2187   7.9536 0001408 108.4663 251.6482 15.08835242110474,6917.895,95.438,540.734,538.786,0.0
